STARLINK-3576           
1 51883U 22022AH  26068.18847517 -.00000088  00000+0  12565-4 0  9995
2 51883  53.2199   1.5536 0001460  93.4769 266.6390 15.08833975223160
PRSC-S1                 
1 65055U 25164A   26068.60758212  .00007316  00000+0  46631-3 0  9991
2 65055  41.1290 129.3637 0004466 348.3012  11.7698 15.08919510 33403
